{
  "type": "FeatureCollection",
  "features": [
    {
      "type": "Feature",
      "properties": {
        "norad_id": 38709,
        "name": "EXACTVIEW-1 (ADS-1B)",
        "group": "resource",
        "lat": -51.04825788956841,
        "lon": 98.13772687859316,
        "alt_km": 812.834830299088,
        "timestamp": "2025-12-04T15:47:53.752920+00:00",
        "meta_object_name": "EXACTVIEW-1 (ADS-1B)",
        "meta_object_id": "2012-039C",
        "meta_epoch": "2025-12-04T07:36:53.411904",
        "meta_mean_motion": 14.24902696,
        "meta_eccentricity": 0.00111062,
        "meta_inclination": 98.9635,
        "meta_ra_of_asc_node": 86.5308,
        "meta_arg_of_pericenter": 18.1386,
        "meta_mean_anomaly": 342.0187,
        "meta_ephemeris_type": 0,
        "meta_classification_type": "U",
        "meta_norad_cat_id": 38709,
        "meta_element_set_no": 999,
        "meta_rev_at_epoch": 69495,
        "meta_bstar": 0.00016683414,
        "meta_mean_motion_dot": 3.44e-06,
        "meta_mean_motion_ddot": 0,
        "tle_line1": "1 38709U 12039C   25338.31728486  .00000344  00000+0  16683-3 0  9999",
        "tle_line2": "2 38709  98.9635  86.5308 0011106  18.1386 342.0187 14.24902696694956"
      },
      "geometry": {
        "type": "Point",
        "coordinates": [
          98.13772687859316,
          -51.04825788956841
        ]
      }
    },
    {
      "type": "Feature",
      "properties": {
        "norad_id": 38755,
        "name": "SPOT 6",
        "group": "resource",
        "lat": 75.71794352030423,
        "lon": 9.290375637426031,
        "alt_km": 689.8484753985558,
        "timestamp": "2025-12-04T15:47:53.752930+00:00",
        "meta_object_name": "SPOT 6",
        "meta_object_id": "2012-047A",
        "meta_epoch": "2025-12-04T07:12:32.135616",
        "meta_mean_motion": 14.58591264,
        "meta_eccentricity": 0.00010499,
        "meta_inclination": 98.1584,
        "meta_ra_of_asc_node": 43.2398,
        "meta_arg_of_pericenter": 100.6713,
        "meta_mean_anomaly": 259.4604,
        "meta_ephemeris_type": 0,
        "meta_classification_type": "U",
        "meta_norad_cat_id": 38755,
        "meta_element_set_no": 999,
        "meta_rev_at_epoch": 70464,
        "meta_bstar": 0.00019799292,
        "meta_mean_motion_dot": 8.76e-06,
        "meta_mean_motion_ddot": 0,
        "tle_line1": "1 38755U 12047A   25338.30037194  .00000876  00000+0  19799-3 0  9998",
        "tle_line2": "2 38755  98.1584  43.2398 0001049 100.6713 259.4604 14.58591264704642"
      },
      "geometry": {
        "type": "Point",
        "coordinates": [
          9.290375637426031,
          75.71794352030423
        ]
      }
    },
    {
      "type": "Feature",
      "properties": {
        "norad_id": 39019,
        "name": "PLEIADES 1B",
        "group": "resource",
        "lat": -21.615536132567414,
        "lon": 54.70484198243121,
        "alt_km": 703.4814046189249,
        "timestamp": "2025-12-04T15:47:53.752941+00:00",
        "meta_object_name": "PLEIADES 1B",
        "meta_object_id": "2012-068A",
        "meta_epoch": "2025-12-04T07:39:57.369600",
        "meta_mean_motion": 14.58540656,
        "meta_eccentricity": 0.00012446,
        "meta_inclination": 98.1804,
        "meta_ra_of_asc_node": 51.1038,
        "meta_arg_of_pericenter": 87.5177,
        "meta_mean_anomaly": 272.6165,
        "meta_ephemeris_type": 0,
        "meta_classification_type": "U",
        "meta_norad_cat_id": 39019,
        "meta_element_set_no": 999,
        "meta_rev_at_epoch": 69244,
        "meta_bstar": 0.00020501923,
        "meta_mean_motion_dot": 9.07e-06,
        "meta_mean_motion_ddot": 0,
        "tle_line1": "1 39019U 12068A   25338.31941400  .00000907  00000+0  20502-3 0  9999",
        "tle_line2": "2 39019  98.1804  51.1038 0001244  87.5177 272.6165 14.58540656692446"
      },
      "geometry": {
        "type": "Point",
        "coordinates": [
          54.70484198243121,
          -21.615536132567414
        ]
      }
    },
    {
      "type": "Feature",
      "properties": {
        "norad_id": 39030,
        "name": "GOKTURK 2",
        "group": "resource",
        "lat": 66.4721812506512,
        "lon": 162.62957685824153,
        "alt_km": 637.3063158605582,
        "timestamp": "2025-12-04T15:47:53.752951+00:00",
        "meta_object_name": "GOKTURK 2",
        "meta_object_id": "2012-073A",
        "meta_epoch": "2025-12-04T07:21:12.571200",
        "meta_mean_motion": 14.75273608,
        "meta_eccentricity": 8.118e-05,
        "meta_inclination": 97.6899,
        "meta_ra_of_asc_node": 180.3745,
        "meta_arg_of_pericenter": 96.8122,
        "meta_mean_anomaly": 263.318,
        "meta_ephemeris_type": 0,
        "meta_classification_type": "U",
        "meta_norad_cat_id": 39030,
        "meta_element_set_no": 999,
        "meta_rev_at_epoch": 69577,
        "meta_bstar": 0.00019985987,
        "meta_mean_motion_dot": 1.306e-05,
        "meta_mean_motion_ddot": 0,
        "tle_line1": "1 39030U 12073A   25338.30639550  .00001306  00000+0  19986-3 0  9995",
        "tle_line2": "2 39030  97.6899 180.3745 0000811  96.8122 263.3180 14.75273608695771"
      },
      "geometry": {
        "type": "Point",
        "coordinates": [
          162.62957685824153,
          66.4721812506512
        ]
      }
    },
    {
      "type": "Feature",
      "properties": {
        "norad_id": 39084,
        "name": "LANDSAT 8",
        "group": "resource",
        "lat": -10.12913182808996,
        "lon": -134.62692528634912,
        "alt_km": 706.9733107823049,
        "timestamp": "2025-12-04T15:47:53.752962+00:00",
        "meta_object_name": "LANDSAT 8",
        "meta_object_id": "2013-008A",
        "meta_epoch": "2025-12-04T05:02:24.406944",
        "meta_mean_motion": 14.57102266,
        "meta_eccentricity": 0.00011649,
        "meta_inclination": 98.2083,
        "meta_ra_of_asc_node": 46.4091,
        "meta_arg_of_pericenter": 85.2683,
        "meta_mean_anomaly": 274.8649,
        "meta_ephemeris_type": 0,
        "meta_classification_type": "U",
        "meta_norad_cat_id": 39084,
        "meta_element_set_no": 999,
        "meta_rev_at_epoch": 66950,
        "meta_bstar": 0.00029716192,
        "meta_mean_motion_dot": 1.294e-05,
        "meta_mean_motion_ddot": 0,
        "tle_line1": "1 39084U 13008A   25338.21000471  .00001294  00000+0  29716-3 0  9995",
        "tle_line2": "2 39084  98.2083  46.4091 0001164  85.2683 274.8649 14.57102266669504"
      },
      "geometry": {
        "type": "Point",
        "coordinates": [
          -134.62692528634912,
          -10.12913182808996
        ]
      }
    },
    {
      "type": "Feature",
      "properties": {
        "norad_id": 39086,
        "name": "SARAL",
        "group": "resource",
        "lat": 16.579134962006282,
        "lon": -14.738901175765022,
        "alt_km": 781.6258369346542,
        "timestamp": "2025-12-04T15:47:53.752972+00:00",
        "meta_object_name": "SARAL",
        "meta_object_id": "2013-009A",
        "meta_epoch": "2025-12-04T06:39:33.484896",
        "meta_mean_motion": 14.32752622,
        "meta_eccentricity": 0.0002655,
        "meta_inclination": 98.5506,
        "meta_ra_of_asc_node": 162.3182,
        "meta_arg_of_pericenter": 124.8778,
        "meta_mean_anomaly": 235.2656,
        "meta_ephemeris_type": 0,
        "meta_classification_type": "U",
        "meta_norad_cat_id": 39086,
        "meta_element_set_no": 999,
        "meta_rev_at_epoch": 66769,
        "meta_bstar": 0.00012572272,
        "meta_mean_motion_dot": 2.99e-06,
        "meta_mean_motion_ddot": 0,
        "tle_line1": "1 39086U 13009A   25338.27747089  .00000299  00000+0  12572-3 0  9993",
        "tle_line2": "2 39086  98.5506 162.3182 0002655 124.8778 235.2656 14.32752622667696"
      },
      "geometry": {
        "type": "Point",
        "coordinates": [
          -14.738901175765022,
          16.579134962006282
        ]
      }
    },
    {
      "type": "Feature",
      "properties": {
        "norad_id": 39150,
        "name": "GAOFEN-1",
        "group": "resource",
        "lat": 69.06877798441047,
        "lon": -109.15706411286425,
        "alt_km": 627.2208750276359,
        "timestamp": "2025-12-04T15:47:53.752983+00:00",
        "meta_object_name": "GAOFEN-1",
        "meta_object_id": "2013-018A",
        "meta_epoch": "2025-12-04T08:47:53.574720",
        "meta_mean_motion": 14.76511608,
        "meta_eccentricity": 0.00177088,
        "meta_inclination": 97.9337,
        "meta_ra_of_asc_node": 49.1735,
        "meta_arg_of_pericenter": 169.2817,
        "meta_mean_anomaly": 190.8774,
        "meta_ephemeris_type": 0,
        "meta_classification_type": "U",
        "meta_norad_cat_id": 39150,
        "meta_element_set_no": 999,
        "meta_rev_at_epoch": 67949,
        "meta_bstar": 0.00024473525,
        "meta_mean_motion_dot": 1.658e-05,
        "meta_mean_motion_ddot": 0,
        "tle_line1": "1 39150U 13018A   25338.36659230  .00001658  00000+0  24474-3 0  9999",
        "tle_line2": "2 39150  97.9337  49.1735 0017708 169.2817 190.8774 14.76511608679494"
      },
      "geometry": {
        "type": "Point",
        "coordinates": [
          -109.15706411286425,
          69.06877798441047
        ]
      }
    }
  ]
}